GOES 13
1 29155U 06018A   08306.53086225 -.00000080  00000-0  10000-3 0  5107
2 29155 000.5186 082.9944 0002696 166.9342 237.3066 01.00270767  8975
OutputFile:29155.txt
ISO Start Date/Time:2008-11-01T23:55:00
ISO End   Date/Time:2008-11-01T23:55:00
Internal Field Model:IGRF
External Field Model:T89
Kp:4.3
Dst:-20
